<?xml version="1.0" encoding="utf-8"?>
<ndm xmlns:xsi="http://www.w3.org/2001/XMLSchema-instance" xsi:noNamespaceSchemaLocation="https://sanaregistry.org/r/ndmxml_unqualified/ndmxml-3.0.0-master-3.0.xsd"><omm id="CCSDS_OMM_VERS" version="3.0"><header><COMMENT>GENERATED VIA SPACE-TRACK.ORG API</COMMENT><CREATION_DATE>2025-09-27T02:24:26</CREATION_DATE><ORIGINATOR>18 SPCS</ORIGINATOR></header><body><segment><metadata><OBJECT_NAME>COSMOS 1570</OBJECT_NAME><OBJECT_ID>1984-056A</OBJECT_ID><CENTER_NAME>EARTH</CENTER_NAME><REF_FRAME>TEME</REF_FRAME><TIME_SYSTEM>UTC</TIME_SYSTEM><MEAN_ELEMENT_THEORY>SGP4</MEAN_ELEMENT_THEORY></metadata><data><meanElements><EPOCH>2025-09-26T15:41:51.152064</EPOCH><MEAN_MOTION>14.32565934</MEAN_MOTION><ECCENTRICITY>0.00128001</ECCENTRICITY><INCLINATION>74.0677</INCLINATION><RA_OF_ASC_NODE>50.7570</RA_OF_ASC_NODE><ARG_OF_PERICENTER>189.1048</ARG_OF_PERICENTER><MEAN_ANOMALY>181.9306</MEAN_ANOMALY></meanElements><tleParameters><EPHEMERIS_TYPE>0</EPHEMERIS_TYPE><CLASSIFICATION_TYPE>U</CLASSIFICATION_TYPE><NORAD_CAT_ID>15031</NORAD_CAT_ID><ELEMENT_SET_NO>999</ELEMENT_SET_NO><REV_AT_EPOCH>15669</REV_AT_EPOCH><BSTAR>0.00013446675000</BSTAR><MEAN_MOTION_DOT>0.00000339</MEAN_MOTION_DOT><MEAN_MOTION_DDOT>0.0000000000000</MEAN_MOTION_DDOT></tleParameters><userDefinedParameters><USER_DEFINED parameter="SEMIMAJOR_AXIS">7161.304</USER_DEFINED><USER_DEFINED parameter="PERIOD">100.519</USER_DEFINED><USER_DEFINED parameter="APOAPSIS">792.335</USER_DEFINED><USER_DEFINED parameter="PERIAPSIS">774.002</USER_DEFINED><USER_DEFINED parameter="OBJECT_TYPE">PAYLOAD</USER_DEFINED><USER_DEFINED parameter="RCS_SIZE">LARGE</USER_DEFINED><USER_DEFINED parameter="COUNTRY_CODE">CIS</USER_DEFINED><USER_DEFINED parameter="LAUNCH_DATE">1984-06-08</USER_DEFINED><USER_DEFINED parameter="SITE">PKMTR</USER_DEFINED><USER_DEFINED parameter="DECAY_DATE"/><USER_DEFINED parameter="FILE">4824809</USER_DEFINED><USER_DEFINED parameter="GP_ID">298488922</USER_DEFINED></userDefinedParameters></data></segment></body></omm></ndm>
